{"type": "FeatureCollection", "features": [ {"type": "Feature", "properties": {"norad_id": 33841, "name": "COSMOS 2251 DEB", "group": "cosmos-2251-debris", "lat": -62.43364400440907, "lon": -130.01975254804196, "alt_km": 762.629402327213, "timestamp": "2025-12-20T18:51:32.105977+00:00", "meta": {"OBJECT_NAME": "COSMOS 2251 DEB", "OBJECT_ID": "1993-036CJ", "EPOCH": "2025-12-20T04:50:53.448864", "MEAN_MOTION": 14.3787057, "ECCENTRICITY": 0.00208485, "INCLINATION": 74.0378, "RA_OF_ASC_NODE": 264.3028, "ARG_OF_PERICENTER": 343.2857, "MEAN_ANOMALY": 169.0859, "EPHEMERIS_TYPE": 0, "CLASSIFICATION_TYPE": "U", "NORAD_CAT_ID": 33841, "ELEMENT_SET_NO": 999, "REV_AT_EPOCH": 88221, "BSTAR": 0.00015733139, "MEAN_MOTION_DOT": 4.49e-06, "MEAN_MOTION_DDOT": 0}, "tle": {"line1": "1 33841U 93036CJ  25354.20200751  .00000449  00000+0  15733-3 0  9994", "line2": "2 33841  74.0378 264.3028 0020848 343.2857 169.0859 14.37870570882210"}}, "geometry": {"type": "Point", "coordinates": [-130.01975254804196, -62.43364400440907]}}, {"type": "Feature", "properties": {"norad_id": 33842, "name": "COSMOS 2251 DEB", "group": "cosmos-2251-debris", "lat": -30.792506717931797, "lon": -165.10737631971114, "alt_km": 722.9023426972153, "timestamp": "2025-12-20T18:51:32.105987+00:00", "meta": {"OBJECT_NAME": "COSMOS 2251 DEB", "OBJECT_ID": "1993-036CK", "EPOCH": "2025-12-20T00:42:01.121760", "MEAN_MOTION": 14.42710574, "ECCENTRICITY": 0.00474815, "INCLINATION": 74.0319, "RA_OF_ASC_NODE": 206.1214, "ARG_OF_PERICENTER": 311.9968, "MEAN_ANOMALY": 47.7149, "EPHEMERIS_TYPE": 0, "CLASSIFICATION_TYPE": "U", "NORAD_CAT_ID": 33842, "ELEMENT_SET_NO": 999, "REV_AT_EPOCH": 88442, "BSTAR": 0.00019230518, "MEAN_MOTION_DOT": 6.21e-06, "MEAN_MOTION_DDOT": 0}, "tle": {"line1": "1 33842U 93036CK  25354.02917965  .00000621  00000+0  19231-3 0  9996", "line2": "2 33842  74.0319 206.1214 0047481 311.9968  47.7149 14.42710574884426"}}, "geometry": {"type": "Point", "coordinates": [-165.10737631971114, -30.792506717931797]}}, {"type": "Feature", "properties": {"norad_id": 33844, "name": "COSMOS 2251 DEB", "group": "cosmos-2251-debris", "lat": -2.109835526202375, "lon": 37.486476814355655, "alt_km": 764.9456004250169, "timestamp": "2025-12-20T18:51:32.105997+00:00", "meta": {"OBJECT_NAME": "COSMOS 2251 DEB", "OBJECT_ID": "1993-036CM", "EPOCH": "2025-12-20T14:23:09.329856", "MEAN_MOTION": 14.33730549, "ECCENTRICITY": 0.00471004, "INCLINATION": 74.0667, "RA_OF_ASC_NODE": 38.4296, "ARG_OF_PERICENTER": 57.8225, "MEAN_ANOMALY": 58.9899, "EPHEMERIS_TYPE": 0, "CLASSIFICATION_TYPE": "U", "NORAD_CAT_ID": 33844, "ELEMENT_SET_NO": 999, "REV_AT_EPOCH": 87838, "BSTAR": 0.00024495943, "MEAN_MOTION_DOT": 6.63e-06, "MEAN_MOTION_DDOT": 0}, "tle": {"line1": "1 33844U 93036CM  25354.59941354  .00000663  00000+0  24496-3 0  9994", "line2": "2 33844  74.0667  38.4296 0047100  57.8225  58.9899 14.33730549878388"}}, "geometry": {"type": "Point", "coordinates": [37.486476814355655, -2.109835526202375]}}, {"type": "Feature", "properties": {"norad_id": 33848, "name": "COSMOS 2251 DEB", "group": "cosmos-2251-debris", "lat": 57.98096566687674, "lon": 135.42005222093243, "alt_km": 734.7638539156205, "timestamp": "2025-12-20T18:51:32.106008+00:00", "meta": {"OBJECT_NAME": "COSMOS 2251 DEB", "OBJECT_ID": "1993-036CR", "EPOCH": "2025-12-20T10:44:50.295840", "MEAN_MOTION": 14.44109372, "ECCENTRICITY": 0.00415952, "INCLINATION": 74.0315, "RA_OF_ASC_NODE": 343.3001, "ARG_OF_PERICENTER": 36.7793, "MEAN_ANOMALY": 124.4232, "EPHEMERIS_TYPE": 0, "CLASSIFICATION_TYPE": "U", "NORAD_CAT_ID": 33848, "ELEMENT_SET_NO": 999, "REV_AT_EPOCH": 87942, "BSTAR": 0.00075494376, "MEAN_MOTION_DOT": 2.588e-05, "MEAN_MOTION_DDOT": 0}, "tle": {"line1": "1 33848U 93036CR  25354.44780435  .00002588  00000+0  75494-3 0  9995", "line2": "2 33848  74.0315 343.3001 0041595  36.7793 124.4232 14.44109372879424"}}, "geometry": {"type": "Point", "coordinates": [135.42005222093243, 57.98096566687674]}}, {"type": "Feature", "properties": {"norad_id": 33892, "name": "COSMOS 2251 DEB", "group": "cosmos-2251-debris", "lat": 16.153840140108954, "lon": -97.44936830993433, "alt_km": 757.5983546965945, "timestamp": "2025-12-20T18:51:32.106018+00:00", "meta": {"OBJECT_NAME": "COSMOS 2251 DEB", "OBJECT_ID": "1993-036CV", "EPOCH": "2025-12-20T00:22:08.893344", "MEAN_MOTION": 14.23361225, "ECCENTRICITY": 0.01124489, "INCLINATION": 73.8027, "RA_OF_ASC_NODE": 88.7851, "ARG_OF_PERICENTER": 118.6054, "MEAN_ANOMALY": 57.4187, "EPHEMERIS_TYPE": 0, "CLASSIFICATION_TYPE": "U", "NORAD_CAT_ID": 33892, "ELEMENT_SET_NO": 999, "REV_AT_EPOCH": 87058, "BSTAR": 0.0004540357, "MEAN_MOTION_DOT": 1.073e-05, "MEAN_MOTION_DDOT": 0}, "tle": {"line1": "1 33892U 93036CV  25354.01538071  .00001073  00000+0  45404-3 0  9990", "line2": "2 33892  73.8027  88.7851 0112448 118.6054  57.4187 14.23361225870585"}}, "geometry": {"type": "Point", "coordinates": [-97.44936830993433, 16.153840140108954]}}, {"type": "Feature", "properties": {"norad_id": 33894, "name": "COSMOS 2251 DEB", "group": "cosmos-2251-debris", "lat": 6.118451576534761, "lon": -21.581829407513588, "alt_km": 1319.3085948972748, "timestamp": "2025-12-20T18:51:32.106029+00:00", "meta": {"OBJECT_NAME": "COSMOS 2251 DEB", "OBJECT_ID": "1993-036CX", "EPOCH": "2025-12-19T22:50:18.443904", "MEAN_MOTION": 13.21320525, "ECCENTRICITY": 0.05791531, "INCLINATION": 73.767, "RA_OF_ASC_NODE": 337.9187, "ARG_OF_PERICENTER": 256.3901, "MEAN_ANOMALY": 97.2081, "EPHEMERIS_TYPE": 0, "CLASSIFICATION_TYPE": "U", "NORAD_CAT_ID": 33894, "ELEMENT_SET_NO": 999, "REV_AT_EPOCH": 80803, "BSTAR": 0.00109059, "MEAN_MOTION_DOT": 1.062e-05, "MEAN_MOTION_DDOT": 0}, "tle": {"line1": "1 33894U 93036CX  25353.95160236  .00001062  00000+0  10906-2 0  9994", "line2": "2 33894  73.7670 337.9187 0579153 256.3901  97.2081 13.21320525808033"}}, "geometry": {"type": "Point", "coordinates": [-21.581829407513588, 6.118451576534761]}}, {"type": "Feature", "properties": {"norad_id": 33896, "name": "COSMOS 2251 DEB", "group": "cosmos-2251-debris", "lat": 66.3349809827706, "lon": -79.5925475515909, "alt_km": 901.342951911397, "timestamp": "2025-12-20T18:51:32.106040+00:00", "meta": {"OBJECT_NAME": "COSMOS 2251 DEB", "OBJECT_ID": "1993-036CZ", "EPOCH": "2025-12-20T11:51:06.518016", "MEAN_MOTION": 14.19054988, "ECCENTRICITY": 0.01268373, "INCLINATION": 73.7663, "RA_OF_ASC_NODE": 142.6056, "ARG_OF_PERICENTER": 317.0632, "MEAN_ANOMALY": 98.6996, "EPHEMERIS_TYPE": 0, "CLASSIFICATION_TYPE": "U", "NORAD_CAT_ID": 33896, "ELEMENT_SET_NO": 999, "REV_AT_EPOCH": 86850, "BSTAR": 0.00031713259, "MEAN_MOTION_DOT": 6.9e-06, "MEAN_MOTION_DDOT": 0}, "tle": {"line1": "1 33896U 93036CZ  25354.49382544  .00000690  00000+0  31713-3 0  9990", "line2": "2 33896  73.7663 142.6056 0126837 317.0632  98.6996 14.19054988868509"}}, "geometry": {"type": "Point", "coordinates": [-79.5925475515909, 66.3349809827706]}}, {"type": "Feature", "properties": {"norad_id": 33899, "name": "COSMOS 2251 DEB", "group": "cosmos-2251-debris", "lat": -73.77207562034864, "lon": -30.433638819239324, "alt_km": 724.7151171575342, "timestamp": "2025-12-20T18:51:32.106051+00:00", "meta": {"OBJECT_NAME": "COSMOS 2251 DEB", "OBJECT_ID": "1993-036DC", "EPOCH": "2025-12-20T04:37:37.423200", "MEAN_MOTION": 14.61249146, "ECCENTRICITY": 0.00562569, "INCLINATION": 74.0544, "RA_OF_ASC_NODE": 71.4909, "ARG_OF_PERICENTER": 132.0189, "MEAN_ANOMALY": 256.3671, "EPHEMERIS_TYPE": 0, "CLASSIFICATION_TYPE": "U", "NORAD_CAT_ID": 33899, "ELEMENT_SET_NO": 999, "REV_AT_EPOCH": 88948, "BSTAR": 0.0005222702, "MEAN_MOTION_DOT": 2.604e-05, "MEAN_MOTION_DDOT": 0}, "tle": {"line1": "1 33899U 93036DC  25354.19279425  .00002604  00000+0  52227-3 0  9993", "line2": "2 33899  74.0544  71.4909 0056256 132.0189 256.3671 14.61249146889481"}}, "geometry": {"type": "Point", "coordinates": [-30.433638819239324, -73.77207562034864]}}, {"type": "Feature", "properties": {"norad_id": 33900, "name": "COSMOS 2251 DEB", "group": "cosmos-2251-debris", "lat": -37.89723604352758, "lon": 177.42259124797104, "alt_km": 701.6523992216462, "timestamp": "2025-12-20T18:51:32.106061+00:00", "meta": {"OBJECT_NAME": "COSMOS 2251 DEB", "OBJECT_ID": "1993-036DD", "EPOCH": "2025-12-20T13:26:45.026304", "MEAN_MOTION": 14.5837153, "ECCENTRICITY": 0.00464912, "INCLINATION": 74.0182, "RA_OF_ASC_NODE": 344.962, "ARG_OF_PERICENTER": 134.7991, "MEAN_ANOMALY": 340.6337, "EPHEMERIS_TYPE": 0, "CLASSIFICATION_TYPE": "U", "NORAD_CAT_ID": 33900, "ELEMENT_SET_NO": 999, "REV_AT_EPOCH": 89150, "BSTAR": 0.00025292614, "MEAN_MOTION_DOT": 1.159e-05, "MEAN_MOTION_DDOT": 0}, "tle": {"line1": "1 33900U 93036DD  25354.56024336  .00001159  00000+0  25293-3 0  9993", "line2": "2 33900  74.0182 344.9620 0046491 134.7991 340.6337 14.58371530891501"}}, "geometry": {"type": "Point", "coordinates": [177.42259124797104, -37.89723604352758]}}, {"type": "Feature", "properties": {"norad_id": 33901, "name": "COSMOS 2251 DEB", "group": "cosmos-2251-debris", "lat": 70.16674507826937, "lon": 86.09511676426962, "alt_km": 506.7096227523134, "timestamp": "2025-12-20T18:51:32.106071+00:00", "meta": {"OBJECT_NAME": "COSMOS 2251 DEB", "OBJECT_ID": "1993-036DE", "EPOCH": "2025-12-20T12:10:51.902688", "MEAN_MOTION": 15.16699161, "ECCENTRICITY": 0.00303993, "INCLINATION": 73.7751, "RA_OF_ASC_NODE": 32.8446, "ARG_OF_PERICENTER": 164.0986, "MEAN_ANOMALY": 196.1171, "EPHEMERIS_TYPE": 0, "CLASSIFICATION_TYPE": "U", "NORAD_CAT_ID": 33901, "ELEMENT_SET_NO": 999, "REV_AT_EPOCH": 89631, "BSTAR": 0.0016469457, "MEAN_MOTION_DOT": 0.00032763, "MEAN_MOTION_DDOT": 0}, "tle": {"line1": "1 33901U 93036DE  25354.50754517  .00032763  00000+0  16469-2 0  9998", "line2": "2 33901  73.7751  32.8446 0030399 164.0986 196.1171 15.16699161896311"}}, "geometry": {"type": "Point", "coordinates": [86.09511676426962, 70.16674507826937]}}]}